QZS-2 (MICHIBIKI-2)     
1 42738U 17028A   25059.24370087 -.00000113  00000+0  00000+0 0  9998
2 42738  40.1655 250.0540 0746165 270.2490 227.1313  1.00264452  2876
QZS-3 (MICHIBIKI-3)     
1 42917U 17048A   25061.57421184 -.00000351  00000+0  00000+0 0  9997
2 42917   0.0536 172.1227 0002420 173.4567 148.7232  1.00274243 27539
QZS-4 (MICHIBIKI-4)     
1 42965U 17062A   25061.50356331 -.00000310  00000+0  00000+0 0  9995
2 42965  40.3852 349.5035 0749010 269.6102 222.4841  1.00281358 27084
QZS-1R (MICHIBIKI-1R)   
1 49336U 21096A   25061.39052951 -.00000228  00000+0  00000+0 0  9992
2 49336  36.4780  86.6176 0748979 269.4544  80.1390  1.00289625 12273
QZS-6 (MICHIBIKI-6)     
1 62876U 25023A   25061.34637448 -.00000236  00000+0  00000+0 0  9994
2 62876   0.0557 328.0919 0001423  43.4437   4.0706  1.00270432   225
