[
    {
        "OBJECT_NAME": "QZS-2 (MICHIBIKI-2)",
        "OBJECT_ID": "2017-028A",
        "EPOCH": "2025-02-28T05:50:55.755168",
        "MEAN_MOTION": 1.00264452,
        "ECCENTRICITY": 0.0746165,
        "INCLINATION": 40.1655,
        "RA_OF_ASC_NODE": 250.054,
        "ARG_OF_PERICENTER": 270.249,
        "MEAN_ANOMALY": 227.1313,
        "EPHEMERIS_TYPE": 0,
        "CLASSIFICATION_TYPE": "U",
        "NORAD_CAT_ID": 42738,
        "ELEMENT_SET_NO": 999,
        "REV_AT_EPOCH": 287,
        "BSTAR": 0,
        "MEAN_MOTION_DOT": -1.13e-06,
        "MEAN_MOTION_DDOT": 0
    },
    {
        "OBJECT_NAME": "QZS-3 (MICHIBIKI-3)",
        "OBJECT_ID": "2017-048A",
        "EPOCH": "2025-03-02T13:46:51.902976",
        "MEAN_MOTION": 1.00274243,
        "ECCENTRICITY": 0.000242,
        "INCLINATION": 0.0536,
        "RA_OF_ASC_NODE": 172.1227,
        "ARG_OF_PERICENTER": 173.4567,
        "MEAN_ANOMALY": 148.7232,
        "EPHEMERIS_TYPE": 0,
        "CLASSIFICATION_TYPE": "U",
        "NORAD_CAT_ID": 42917,
        "ELEMENT_SET_NO": 999,
        "REV_AT_EPOCH": 2753,
        "BSTAR": 0,
        "MEAN_MOTION_DOT": -3.51e-06,
        "MEAN_MOTION_DDOT": 0
    },
    {
        "OBJECT_NAME": "QZS-4 (MICHIBIKI-4)",
        "OBJECT_ID": "2017-062A",
        "EPOCH": "2025-03-02T12:05:07.869984",
        "MEAN_MOTION": 1.00281358,
        "ECCENTRICITY": 0.074901,
        "INCLINATION": 40.3852,
        "RA_OF_ASC_NODE": 349.5035,
        "ARG_OF_PERICENTER": 269.6102,
        "MEAN_ANOMALY": 222.4841,
        "EPHEMERIS_TYPE": 0,
        "CLASSIFICATION_TYPE": "U",
        "NORAD_CAT_ID": 42965,
        "ELEMENT_SET_NO": 999,
        "REV_AT_EPOCH": 2708,
        "BSTAR": 0,
        "MEAN_MOTION_DOT": -3.1e-06,
        "MEAN_MOTION_DDOT": 0
    },
    {
        "OBJECT_NAME": "QZS-1R (MICHIBIKI-1R)",
        "OBJECT_ID": "2021-096A",
        "EPOCH": "2025-03-02T09:22:21.749664",
        "MEAN_MOTION": 1.00289625,
        "ECCENTRICITY": 0.0748979,
        "INCLINATION": 36.478,
        "RA_OF_ASC_NODE": 86.6176,
        "ARG_OF_PERICENTER": 269.4544,
        "MEAN_ANOMALY": 80.139,
        "EPHEMERIS_TYPE": 0,
        "CLASSIFICATION_TYPE": "U",
        "NORAD_CAT_ID": 49336,
        "ELEMENT_SET_NO": 999,
        "REV_AT_EPOCH": 1227,
        "BSTAR": 0,
        "MEAN_MOTION_DOT": -2.28e-06,
        "MEAN_MOTION_DDOT": 0
    },
    {
        "OBJECT_NAME": "QZS-6 (MICHIBIKI-6)",
        "OBJECT_ID": "2025-023A",
        "EPOCH": "2025-03-02T08:18:46.755072",
        "MEAN_MOTION": 1.00270432,
        "ECCENTRICITY": 0.0001423,
        "INCLINATION": 0.0557,
        "RA_OF_ASC_NODE": 328.0919,
        "ARG_OF_PERICENTER": 43.4437,
        "MEAN_ANOMALY": 4.0706,
        "EPHEMERIS_TYPE": 0,
        "CLASSIFICATION_TYPE": "U",
        "NORAD_CAT_ID": 62876,
        "ELEMENT_SET_NO": 999,
        "REV_AT_EPOCH": 22,
        "BSTAR": 0,
        "MEAN_MOTION_DOT": -2.36e-06,
        "MEAN_MOTION_DDOT": 0
    }
]